[{"norad_id":"20580","company":"SCIENCE","tle_line2":"2 20580  28.4701 316.1394 0001971 164.3487 195.7169 15.27914955759015","launch_date":"1990-04-24","type":"LEO","tle_line1":"1 20580U 90037B   25340.32599985  .00012669  00000+0  44335-3 0  9993","satellite_name":"HST"},{"norad_id":"43229","company":"ACTIVE","tle_line2":"2 43229  26.8154 190.6903 3654779 121.3689 279.5679  8.23243535176539","launch_date":"2018-03-06","type":"MEO","tle_line1":"1 43229U 18023B   25340.28290429  .00106811 -25825-6  94462-3 0  9998","satellite_name":"PODSAT"}]