OBJECT_NAME,OBJECT_ID,EPOCH,MEAN_MOTION,ECCENTRICITY,INCLINATION,RA_OF_ASC_NODE,ARG_OF_PERICENTER,MEAN_ANOMALY,EPHEMERIS_TYPE,CLASSIFICATION_TYPE,NORAD_CAT_ID,ELEMENT_SET_NO,REV_AT_EPOCH,BSTAR,MEAN_MOTION_DOT,MEAN_MOTION_DDOT
HST,1990-037B,2025-12-06T07:49:26.387040,15.27914955,.00019714,28.4701,316.1394,164.3487,195.7169,0,U,20580,999,75901,.44335219E-3,.12669E-3,0
PODSAT,2018-023B,2025-12-06T06:47:22.930656,8.23243535,.3654779,26.8154,190.6903,121.3689,279.5679,0,U,43229,999,17653,.94462203E-3,.106811E-2,-.258245E-6